[{"OBJECT_NAME":"STARLINK-32595","OBJECT_ID":"2024-216F","EPOCH":"2025-08-01T14:33:23.616576","MEAN_MOTION":15.27573508,"ECCENTRICITY":5.85e-5,"INCLINATION":42.9981,"RA_OF_ASC_NODE":66.4237,"ARG_OF_PERICENTER":214.4837,"MEAN_ANOMALY":145.5977,"EPHEMERIS_TYPE":0,"CLASSIFICATION_TYPE":"U","NORAD_CAT_ID":62037,"ELEMENT_SET_NO":999,"REV_AT_EPOCH":4014,"BSTAR":0.00013085,"MEAN_MOTION_DOT":3.34e-5,"MEAN_MOTION_DDOT":0},{"OBJECT_NAME":"STARLINK-32477","OBJECT_ID":"2024-216G","EPOCH":"2025-08-01T14:40:44.832000","MEAN_MOTION":15.3638217,"ECCENTRICITY":0.0001521,"INCLINATION":43.0009,"RA_OF_ASC_NODE":56.9552,"ARG_OF_PERICENTER":263.2556,"MEAN_ANOMALY":96.8126,"EPHEMERIS_TYPE":0,"CLASSIFICATION_TYPE":"U","NORAD_CAT_ID":62038,"ELEMENT_SET_NO":999,"REV_AT_EPOCH":4017,"BSTAR":0.0011549,"MEAN_MOTION_DOT":0.00041829,"MEAN_MOTION_DDOT":0},{"OBJECT_NAME":"STARLINK-32480","OBJECT_ID":"2024-216H","EPOCH":"2025-08-01T17:33:51.340608","MEAN_MOTION":15.27577318,"ECCENTRICITY":0.000155,"INCLINATION":42.9984,"RA_OF_ASC_NODE":58.7281,"ARG_OF_PERICENTER":290.0601,"MEAN_ANOMALY":70.0084,"EPHEMERIS_TYPE":0,"CLASSIFICATION_TYPE":"U","NORAD_CAT_ID":62039,"ELEMENT_SET_NO":999,"REV_AT_EPOCH":4005,"BSTAR":0.0013559,"MEAN_MOTION_DOT":0.00037235,"MEAN_MOTION_DDOT":0},{"OBJECT_NAME":"STARLINK-32510","OBJECT_ID":"2024-216J","EPOCH":"2025-07-31T23:28:49.899648","MEAN_MOTION":15.27606758,"ECCENTRICITY":0.0001938,"INCLINATION":43.001,"RA_OF_ASC_NODE":70.3126,"ARG_OF_PERICENTER":279.445,"MEAN_ANOMALY":80.6183,"EPHEMERIS_TYPE":0,"CLASSIFICATION_TYPE":"U","NORAD_CAT_ID":62040,"ELEMENT_SET_NO":999,"REV_AT_EPOCH":4003,"BSTAR":0.001118,"MEAN_MOTION_DOT":0.00030656,"MEAN_MOTION_DDOT":0},{"OBJECT_NAME":"STARLINK-32456","OBJECT_ID":"2024-216K","EPOCH":"2025-07-31T22:49:31.506240","MEAN_MOTION":15.27604601,"ECCENTRICITY":8.17e-5,"INCLINATION":43.0017,"RA_OF_ASC_NODE":63.187,"ARG_OF_PERICENTER":279.2182,"MEAN_ANOMALY":80.8577,"EPHEMERIS_TYPE":0,"CLASSIFICATION_TYPE":"U","NORAD_CAT_ID":62041,"ELEMENT_SET_NO":999,"REV_AT_EPOCH":3993,"BSTAR":0.001252,"MEAN_MOTION_DOT":0.00034377,"MEAN_MOTION_DDOT":0},{"OBJECT_NAME":"STARLINK-32509","OBJECT_ID":"2024-216L","EPOCH":"2025-07-31T23:59:37.665600","MEAN_MOTION":15.27634579,"ECCENTRICITY":0.0001847,"INCLINATION":43,"RA_OF_ASC_NODE":62.6901,"ARG_OF_PERICENTER":291.2728,"MEAN_ANOMALY":68.7927,"EPHEMERIS_TYPE":0,"CLASSIFICATION_TYPE":"U","NORAD_CAT_ID":62042,"ELEMENT_SET_NO":999,"REV_AT_EPOCH":4012,"BSTAR":0.001062,"MEAN_MOTION_DOT":0.00029126,"MEAN_MOTION_DDOT":0},{"OBJECT_NAME":"STARLINK-32491","OBJECT_ID":"2024-216M","EPOCH":"2025-07-31T23:23:16.823328","MEAN_MOTION":15.27608926,"ECCENTRICITY":0.000174,"INCLINATION":42.9991,"RA_OF_ASC_NODE":70.2833,"ARG_OF_PERICENTER":271.7538,"MEAN_ANOMALY":88.3114,"EPHEMERIS_TYPE":0,"CLASSIFICATION_TYPE":"U","NORAD_CAT_ID":62043,"ELEMENT_SET_NO":999,"REV_AT_EPOCH":4003,"BSTAR":0.0012604,"MEAN_MOTION_DOT":0.00034615,"MEAN_MOTION_DDOT":0},{"OBJECT_NAME":"STARLINK-32577","OBJECT_ID":"2024-216N","EPOCH":"2025-08-01T00:14:52.529280","MEAN_MOTION":15.27600617,"ECCENTRICITY":7.69e-5,"INCLINATION":43.0005,"RA_OF_ASC_NODE":69.6906,"ARG_OF_PERICENTER":264.7914,"MEAN_ANOMALY":95.285,"EPHEMERIS_TYPE":0,"CLASSIFICATION_TYPE":"U","NORAD_CAT_ID":62044,"ELEMENT_SET_NO":999,"REV_AT_EPOCH":4005,"BSTAR":0.0007761,"MEAN_MOTION_DOT":0.00021169,"MEAN_MOTION_DDOT":0},{"OBJECT_NAME":"STARLINK-32618","OBJECT_ID":"2024-216P","EPOCH":"2025-08-01T17:32:00.176640","MEAN_MOTION":15.27582539,"ECCENTRICITY":0.0001503,"INCLINATION":42.998,"RA_OF_ASC_NODE":58.7151,"ARG_OF_PERICENTER":283.3705,"MEAN_ANOMALY":76.6979,"EPHEMERIS_TYPE":0,"CLASSIFICATION_TYPE":"U","NORAD_CAT_ID":62045,"ELEMENT_SET_NO":999,"REV_AT_EPOCH":4005,"BSTAR":0.0013121,"MEAN_MOTION_DOT":0.00036024,"MEAN_MOTION_DDOT":0},{"OBJECT_NAME":"STARLINK-32598","OBJECT_ID":"2024-216Q","EPOCH":"2025-08-01T14:45:40.834944","MEAN_MOTION":15.27580625,"ECCENTRICITY":7.31e-5,"INCLINATION":43.0012,"RA_OF_ASC_NODE":58.709,"ARG_OF_PERICENTER":235.6289,"MEAN_ANOMALY":124.4494,"EPHEMERIS_TYPE":0,"CLASSIFICATION_TYPE":"U","NORAD_CAT_ID":62046,"ELEMENT_SET_NO":999,"REV_AT_EPOCH":4015,"BSTAR":0.00079457,"MEAN_MOTION_DOT":0.00021667,"MEAN_MOTION_DDOT":0},{"OBJECT_NAME":"STARLINK-32630","OBJECT_ID":"2024-216R","EPOCH":"2025-08-01T14:38:56.906304","MEAN_MOTION":15.27596785,"ECCENTRICITY":6.17e-5,"INCLINATION":42.999,"RA_OF_ASC_NODE":66.4517,"ARG_OF_PERICENTER":198.6225,"MEAN_ANOMALY":161.4604,"EPHEMERIS_TYPE":0,"CLASSIFICATION_TYPE":"U","NORAD_CAT_ID":62047,"ELEMENT_SET_NO":999,"REV_AT_EPOCH":4006,"BSTAR":0.0010998,"MEAN_MOTION_DOT":0.00030141,"MEAN_MOTION_DDOT":0},{"OBJECT_NAME":"STARLINK-32599","OBJECT_ID":"2024-216S","EPOCH":"2025-07-31T23:02:55.237920","MEAN_MOTION":15.27612699,"ECCENTRICITY":0.0001127,"INCLINATION":43.0018,"RA_OF_ASC_NODE":70.1677,"ARG_OF_PERICENTER":255.0974,"MEAN_ANOMALY":104.9753,"EPHEMERIS_TYPE":0,"CLASSIFICATION_TYPE":"U","NORAD_CAT_ID":62048,"ELEMENT_SET_NO":999,"REV_AT_EPOCH":4003,"BSTAR":0.0011171,"MEAN_MOTION_DOT":0.00030636,"MEAN_MOTION_DDOT":0},{"OBJECT_NAME":"STARLINK-32473","OBJECT_ID":"2024-216T","EPOCH":"2025-08-01T00:03:20.382336","MEAN_MOTION":15.27589039,"ECCENTRICITY":0.0002309,"INCLINATION":42.9978,"RA_OF_ASC_NODE":62.7086,"ARG_OF_PERICENTER":49.749,"MEAN_ANOMALY":310.3563,"EPHEMERIS_TYPE":0,"CLASSIFICATION_TYPE":"U","NORAD_CAT_ID":62049,"ELEMENT_SET_NO":999,"REV_AT_EPOCH":3896,"BSTAR":0.00043455,"MEAN_MOTION_DOT":0.00011718,"MEAN_MOTION_DDOT":0},{"OBJECT_NAME":"STARLINK-32492","OBJECT_ID":"2024-216U","EPOCH":"2025-08-01T08:00:01.999872","MEAN_MOTION":15.27560505,"ECCENTRICITY":0.0002255,"INCLINATION":43.0038,"RA_OF_ASC_NODE":67.731,"ARG_OF_PERICENTER":276.2921,"MEAN_ANOMALY":118.8462,"EPHEMERIS_TYPE":0,"CLASSIFICATION_TYPE":"U","NORAD_CAT_ID":62050,"ELEMENT_SET_NO":999,"REV_AT_EPOCH":588,"BSTAR":0.00014788,"MEAN_MOTION_DOT":3.807e-5,"MEAN_MOTION_DDOT":0},{"OBJECT_NAME":"STARLINK-32496","OBJECT_ID":"2024-216V","EPOCH":"2025-08-01T14:59:17.820384","MEAN_MOTION":15.27606038,"ECCENTRICITY":0.0001405,"INCLINATION":42.9994,"RA_OF_ASC_NODE":66.5649,"ARG_OF_PERICENTER":289.3496,"MEAN_ANOMALY":70.7203,"EPHEMERIS_TYPE":0,"CLASSIFICATION_TYPE":"U","NORAD_CAT_ID":62051,"ELEMENT_SET_NO":999,"REV_AT_EPOCH":3897,"BSTAR":0.00081624,"MEAN_MOTION_DOT":0.00022285,"MEAN_MOTION_DDOT":0},{"OBJECT_NAME":"STARLINK-32495","OBJECT_ID":"2024-216W","EPOCH":"2025-08-01T15:15:44.778816","MEAN_MOTION":15.27593729,"ECCENTRICITY":0.0001266,"INCLINATION":43.0012,"RA_OF_ASC_NODE":65.7814,"ARG_OF_PERICENTER":270.9301,"MEAN_ANOMALY":89.1405,"EPHEMERIS_TYPE":0,"CLASSIFICATION_TYPE":"U","NORAD_CAT_ID":62052,"ELEMENT_SET_NO":999,"REV_AT_EPOCH":3898,"BSTAR":0.0011875,"MEAN_MOTION_DOT":0.00032573,"MEAN_MOTION_DDOT":0},{"OBJECT_NAME":"STARLINK-32494","OBJECT_ID":"2024-216X","EPOCH":"2025-08-01T19:01:03.374688","MEAN_MOTION":15.27591435,"ECCENTRICITY":0.0002074,"INCLINATION":43.0021,"RA_OF_ASC_NODE":65.2378,"ARG_OF_PERICENTER":264.5271,"MEAN_ANOMALY":95.5344,"EPHEMERIS_TYPE":0,"CLASSIFICATION_TYPE":"U","NORAD_CAT_ID":62053,"ELEMENT_SET_NO":999,"REV_AT_EPOCH":3901,"BSTAR":0.0010684,"MEAN_MOTION_DOT":0.00029266,"MEAN_MOTION_DDOT":0}]
