STARLINK-32595          
1 62037U 24216F   25213.60652334  .00003340  00000+0  13085-3 0  9994
2 62037  42.9981  66.4237 0000585 214.4837 145.5977 15.27573508 40148
STARLINK-32477          
1 62038U 24216G   25213.61163000  .00041829  00000+0  11549-2 0  9999
2 62038  43.0009  56.9552 0001521 263.2556  96.8126 15.36382170 40177
STARLINK-32480          
1 62039U 24216H   25213.73184422  .00037235  00000+0  13559-2 0  9993
2 62039  42.9984  58.7281 0001550 290.0601  70.0084 15.27577318 40052
STARLINK-32510          
1 62040U 24216J   25212.97835532  .00030656  00000+0  11180-2 0  9993
2 62040  43.0010  70.3126 0001938 279.4450  80.6183 15.27606758 40033
STARLINK-32456          
1 62041U 24216K   25212.95105910  .00034377  00000+0  12520-2 0  9995
2 62041  43.0017  63.1870 0000817 279.2182  80.8577 15.27604601 39933
STARLINK-32509          
1 62042U 24216L   25212.99974150  .00029126  00000+0  10620-2 0  9995
2 62042  43.0000  62.6901 0001847 291.2728  68.7927 15.27634579 40123
STARLINK-32491          
1 62043U 24216M   25212.97450027  .00034615  00000+0  12604-2 0  9999
2 62043  42.9991  70.2833 0001740 271.7538  88.3114 15.27608926 40037
STARLINK-32577          
1 62044U 24216N   25213.01033020  .00021169  00000+0  77610-3 0  9995
2 62044  43.0005  69.6906 0000769 264.7914  95.2850 15.27600617 40054
STARLINK-32618          
1 62045U 24216P   25213.73055760  .00036024  00000+0  13121-2 0  9992
2 62045  42.9980  58.7151 0001503 283.3705  76.6979 15.27582539 40055
STARLINK-32598          
1 62046U 24216Q   25213.61505596  .00021667  00000+0  79457-3 0  9999
2 62046  43.0012  58.7090 0000731 235.6289 124.4494 15.27580625 40154
STARLINK-32630          
1 62047U 24216R   25213.61038086  .00030141  00000+0  10998-2 0  9996
2 62047  42.9990  66.4517 0000617 198.6225 161.4604 15.27596785 40067
STARLINK-32599          
1 62048U 24216S   25212.96036155  .00030636  00000+0  11171-2 0  9992
2 62048  43.0018  70.1677 0001127 255.0974 104.9753 15.27612699 40033
STARLINK-32473          
1 62049U 24216T   25213.00231924  .00011718  00000+0  43455-3 0  9991
2 62049  42.9978  62.7086 0002309  49.7490 310.3563 15.27589039 38964
STARLINK-32492          
1 62050U 24216U   25213.33335648  .00003807  00000+0  14788-3 0  9994
2 62050  43.0038  67.7310 0002255 276.2921 118.8462 15.27560505  5887
STARLINK-32496          
1 62051U 24216V   25213.62451181  .00022285  00000+0  81624-3 0  9992
2 62051  42.9994  66.5649 0001405 289.3496  70.7203 15.27606038 38974
STARLINK-32495          
1 62052U 24216W   25213.63593494  .00032573  00000+0  11875-2 0  9999
2 62052  43.0012  65.7814 0001266 270.9301  89.1405 15.27593729 38980
STARLINK-32494          
1 62053U 24216X   25213.79240017  .00029266  00000+0  10684-2 0  9999
2 62053  43.0021  65.2378 0002074 264.5271  95.5344 15.27591435 39014
